ONEWEB-0545             
1 54647U 22166F   25340.54312858  .00000133  00000+0  29098-3 0  9990
2 54647  87.9211 282.4103 0001935  89.3504 270.7851 13.21819315146053
ONEWEB-0580             
1 54648U 22166G   25340.59249313  .00000062  00000+0  11968-3 0  9999
2 54648  87.9211 282.3996 0001730  89.5453 270.5879 13.21825311146108
ONEWEB-0582             
1 54649U 22166H   25340.55957874  .00000019  00000+0  13431-4 0  9994
2 54649  87.9214 282.3991 0001830  94.9056 265.2287 13.21824184146074
ONEWEB-0583             
1 54650U 22166J   25340.57110123  .00003610  00000+0  87086-2 0  9991
2 54650  87.9210 282.4216 0002009  78.5606 281.5754 13.21807615146082
ONEWEB-0584             
1 54651U 22166K   25340.28804637  .00000126  00000+0  27283-3 0  9993
2 54651  87.9211 282.4642 0001660  89.7904 270.3421 13.21823865146031
ONEWEB-0585             
1 54652U 22166L   25340.53982998  .00000063  00000+0  12142-3 0  9997
2 54652  87.9211 282.3984 0001749  73.6233 286.5093 13.21827536146072
ONEWEB-0586             
1 54653U 22166M   25340.55300583  .00000081  00000+0  16575-3 0  9998
2 54653  87.9212 282.4215 0001796  83.7295 276.4043 13.21824908146077
ONEWEB-0587             
1 54654U 22166N   25340.56287520  .00000055  00000+0  10259-3 0  9999
2 54654  87.9226 282.3748 0001793  64.8929 295.2391 13.21824671146234
